     2.11           N: GPS NAV DATA                         RINEX VERSION / TYPE
teqc  2019Feb25                         20221121 12:25:06UTCPGM / RUN BY / DATE
OSX ker:10.11.6|Core i5|gcc 4.3 -m64|OSX ker:10.10+|=+      COMMENT
    4.6566D-09  1.4901D-08 -5.9605D-08 -1.1921D-07          ION ALPHA
    7.9872D+04  8.1920D+04 -6.5536D+04 -4.5875D+05          ION BETA
   -5.587935447693D-09-1.065814103640D-14   147456     1540 DELTA-UTC: A0,A1,T,W
                                                            END OF HEADER
30 09  7 12  6  0  0.0 1.603295095265D-04 2.842170943040D-12 0.000000000000D+00
    5.700000000000D+01-7.218750000000D+01 4.830201197268D-09 7.902958492800D-01
   -3.945082426071D-06 1.162717293482D-02 5.492940545082D-06 5.153572364807D+03
    2.160000000000D+04-1.098960638046D-07 2.874613111883D+00-6.332993507385D-08
    9.528362385739D-01 2.698125000000D+02 1.427462248104D+00-8.534641216350D-09
   -1.535778257043D-10 1.000000000000D+00 1.540000000000D+03 0.000000000000D+00
    2.000000000000D+00 0.000000000000D+00-8.381903171539D-09 5.700000000000D+01
    1.441800000000D+04 4.000000000000D+00
 2 09  7 12  6  0  0.0 1.596533693373D-04 1.591615728103D-12 0.000000000000D+00
    7.400000000000D+01 3.843750000000D+01 5.464156175466D-09-1.288961451790D+00
    2.017244696617D-06 9.066749480553D-03 6.260350346565D-06 5.153675285339D+03
    2.160000000000D+04 7.078051567078D-08-1.285016144595D+00-1.527369022369D-07
    9.406914803531D-01 2.481875000000D+02 2.861198208687D+00-8.581786037264D-09
    3.771585673111D-10 1.000000000000D+00 1.540000000000D+03 0.000000000000D+00
    2.000000000000D+00 0.000000000000D+00-1.722946763039D-08 7.400000000000D+01
    1.441800000000D+04 4.000000000000D+00
12 09  7 12  6  0  0.0-2.520508132875D-04 6.139089236967D-12 0.000000000000D+00
    6.000000000000D+01-7.796875000000D+01 4.368039089218D-09-2.974037676630D+00
   -3.971159458160D-06 3.240871941671D-03 5.725771188736D-06 5.153623886108D+03
    2.160000000000D+04 3.539025783539D-08 2.923091576463D+00 5.029141902924D-08
    9.677731061487D-01 2.687500000000D+02-6.477053645340D-01-8.085693944465D-09
   -8.857511808063D-11 1.000000000000D+00 1.540000000000D+03 0.000000000000D+00
    2.000000000000D+00 0.000000000000D+00-1.164153218269D-08 6.000000000000D+01
    1.441800000000D+04 4.000000000000D+00
31 09  7 12  6  0  0.0-6.368709728122D-05-5.684341886081D-13 0.000000000000D+00
    8.700000000000D+01 3.731250000000D+01 4.222318733666D-09 3.123249720664D+00
    2.026557922363D-06 6.983976927586D-03 4.351139068604D-06 5.153746339798D+03
    2.160000000000D+04 3.166496753693D-08 1.868764712957D+00 1.862645149231D-08
    9.731229975646D-01 3.039062500000D+02-1.136709405469D+00-7.978903781941D-09
    1.978653847446D-10 1.000000000000D+00 1.540000000000D+03 0.000000000000D+00
    2.000000000000D+00 0.000000000000D+00-1.303851604462D-08 8.700000000000D+01
    1.444200000000D+04 4.000000000000D+00
13 09  7 12  6  0  0.0 3.012306988239D-04 6.821210263297D-13 0.000000000000D+00
    4.700000000000D+01 5.303125000000D+01 3.477644857867D-09-6.830663298487D-01
    2.691522240639D-06 4.138987045735D-03 1.062080264091D-05 5.153688022614D+03
    2.160000000000D+04-3.166496753693D-08 8.815552289309D-01 7.078051567078D-08
    9.947881501537D-01 1.920937500000D+02 1.620724566598D+00-7.608888369313D-09
   -4.464471677451D-11 1.000000000000D+00 1.540000000000D+03 0.000000000000D+00
    2.000000000000D+00 0.000000000000D+00-1.117587089539D-08 4.700000000000D+01
    1.678200000000D+04 4.000000000000D+00
29 09  7 12  6  0  0.0 3.866478800774D-05 3.524291969370D-12 0.000000000000D+00
    6.400000000000D+01-1.884375000000D+01 4.503759028213D-09 2.346288078556D+00
   -1.100823283195D-06 3.351202933118D-03 1.079402863979D-05 5.153652379990D+03
    2.160000000000D+04 5.587935447693D-08-2.292859709233D+00-1.303851604462D-08
    9.599966447193D-01 1.754687500000D+02-1.302314760283D+00-7.833897741857D-09
    2.410814705824D-10 1.000000000000D+00 1.540000000000D+03 0.000000000000D+00
    2.000000000000D+00 0.000000000000D+00-8.847564458847D-09 6.400000000000D+01
    2.086200000000D+04 4.000000000000D+00
10 09  7 12  6  0  0.0-1.904368400574D-05-6.821210263297D-13 0.000000000000D+00
    1.020000000000D+02-2.096875000000D+01 4.867702759358D-09-3.079201658137D-01
   -1.126900315285D-06 8.562834700570D-03 6.698071956635D-06 5.153630720139D+03
    2.160000000000D+04 2.235174179077D-08-2.003759566115D-01 1.192092895508D-07
    9.579200412833D-01 2.465937500000D+02 6.262363702413D-01-8.369277185417D-09
   -5.682379551060D-10 1.000000000000D+00 1.540000000000D+03 0.000000000000D+00
    2.800000000000D+00 0.000000000000D+00-2.793967723846D-09 1.020000000000D+02
    2.125200000000D+04 4.000000000000D+00
 2 09  7 12  8  0  0.0 1.596650108695D-04 1.591615728103D-12 0.000000000000D+00
    7.600000000000D+01 4.384375000000D+01 5.506657945835D-09-2.388528628262D-01
    2.318993210793D-06 9.066096623428D-03 6.029382348061D-06 5.153673440933D+03
    2.880000000000D+04 1.117587089539D-07-1.285077863645D+00-7.636845111847D-08
    9.406941443270D-01 2.524375000000D+02 2.861277038028D+00-8.616787495215D-09
    3.643008888800D-10 1.000000000000D+00 1.540000000000D+03 0.000000000000D+00
    2.000000000000D+00 0.000000000000D+00-1.722946763039D-08 7.600000000000D+01
    2.161800000000D+04 4.000000000000D+00
 4 09  7 12  8  0  0.0-1.713815145195D-04-1.648459146963D-11 0.000000000000D+00
    5.600000000000D+01 4.484375000000D+01 5.413439777210D-09 2.633324847407D+00
    2.326443791389D-06 8.601168519817D-03 6.096437573433D-06 5.153764289856D+03
    2.880000000000D+04-1.005828380585D-07-1.266754563081D+00-1.173466444016D-07
    9.399021307193D-01 2.525000000000D+02 4.933843658392D-01-8.348204879099D-09
    3.385855320179D-10 1.000000000000D+00 1.540000000000D+03 0.000000000000D+00
    2.000000000000D+00 0.000000000000D+00-6.053596735001D-09 5.600000000000D+01
    2.161800000000D+04 4.000000000000D+00
13 09  7 12  8  0  0.0 3.012358210981D-04 6.821210263297D-13 0.000000000000D+00
    6.500000000000D+01 4.737500000000D+01 3.565505660480D-09 3.669792351410D-01
    2.415850758553D-06 4.136848263443D-03 9.987503290176D-06 5.153683862686D+03
    2.880000000000D+04-6.891787052155D-08 8.815009444297D-01-3.166496753693D-08
    9.947875415798D-01 2.068125000000D+02 1.620845181268D+00-7.596745006351D-09
   -1.317912039184D-10 1.000000000000D+00 1.540000000000D+03 0.000000000000D+00
    2.000000000000D+00 0.000000000000D+00-1.117587089539D-08 6.500000000000D+01
    2.161800000000D+04 4.000000000000D+00
23 09  7 12  8  0  0.0 3.900844603777D-04-1.136868377216D-13 0.000000000000D+00
    7.700000000000D+01 3.687500000000D+01 4.092313318419D-09-3.374342849781D-01
    1.711770892143D-06 6.320407381281D-03 9.853392839432D-06 5.153595235825D+03
    2.880000000000D+04 1.136213541031D-07 8.284027191441D-01-7.450580596924D-08
    9.702661672519D-01 1.972812500000D+02 2.912504353474D+00-7.865684780200D-09
   -1.814361289716D-10 1.000000000000D+00 1.540000000000D+03 0.000000000000D+00
    2.000000000000D+00 0.000000000000D+00-2.002343535423D-08 7.700000000000D+01
    2.161800000000D+04 4.000000000000D+00
30 09  7 12  8  0  0.0 1.603499986231D-04 2.842170943040D-12 0.000000000000D+00
    6.000000000000D+01-7.750000000000D+01 4.646622121891D-09 1.840456598588D+00
   -4.185363650322D-06 1.162746245973D-02 5.228444933891D-06 5.153574279785D+03
    2.880000000000D+04 1.136213541031D-07 2.874551932649D+00-2.495944499969D-07
    9.528364536229D-01 2.745625000000D+02 1.427545638823D+00-8.271058808513D-09
   -9.714690370134D-11 1.000000000000D+00 1.540000000000D+03 0.000000000000D+00
    2.000000000000D+00 0.000000000000D+00-8.381903171539D-09 6.000000000000D+01
    2.161800000000D+04 4.000000000000D+00
31 09  7 12  8  0  0.0-6.369128823280D-05-5.684341886081D-13 0.000000000000D+00
    8.800000000000D+01 3.615625000000D+01 4.293750280505D-09-2.109829873649D+00
    1.931563019753D-06 6.983847008087D-03 4.548579454422D-06 5.153746374130D+03
    2.880000000000D+04 2.980232238770D-08 1.868707362180D+00 1.620501279831D-07
    9.731237919291D-01 3.005312500000D+02-1.136681068746D+00-8.092837099149D-09
    1.425059359442D-10 1.000000000000D+00 1.540000000000D+03 0.000000000000D+00
    2.000000000000D+00 0.000000000000D+00-1.303851604462D-08 8.800000000000D+01
    2.161800000000D+04 4.000000000000D+00
10 09  7 12  8  0  0.0-1.904927194118D-05-6.821210263297D-13 0.000000000000D+00
    1.030000000000D+02-2.290625000000D+01 4.960563770249D-09 7.422831617246D-01
   -9.089708328247D-07 8.562564849854D-03 6.813555955887D-06 5.153630235672D+03
    2.880000000000D+04 1.117587089539D-08-2.004363210002D-01 9.499490261078D-08
    9.579159290206D-01 2.450937500000D+02 6.262434024885D-01-8.381063390645D-09
   -5.671664819034D-10 1.000000000000D+00 1.540000000000D+03 0.000000000000D+00
    2.800000000000D+00 0.000000000000D+00-2.793967723846D-09 1.030000000000D+02
    2.161800000000D+04 4.000000000000D+00
12 09  7 12  8  0  0.0-2.520065754652D-04 6.139089236967D-12 0.000000000000D+00
    8.900000000000D+01-7.906250000000D+01 4.333037631267D-09-1.923919950280D+00
   -4.015862941742D-06 3.241146449000D-03 6.139278411865D-06 5.153623117447D+03
    2.880000000000D+04-9.313225746155D-09 2.923033216272D+00 6.146728992462D-08
    9.677722898404D-01 2.660937500000D+02-6.476128042442D-01-8.122838348822D-09
   -9.143237995420D-11 1.000000000000D+00 1.540000000000D+03 0.000000000000D+00
    2.000000000000D+00 0.000000000000D+00-1.164153218269D-08 8.900000000000D+01
    2.161800000000D+04 4.000000000000D+00
